[{"OBJECT_NAME":"OBJECT F","OBJECT_ID":"2023-072F","EPOCH":"2026-03-09T23:31:37.259904","MEAN_MOTION":15.29470958,"ECCENTRICITY":0.00062878,"INCLINATION":97.5173,"RA_OF_ASC_NODE":265.798,"ARG_OF_PERICENTER":19.0017,"MEAN_ANOMALY":341.1456,"EPHEMERIS_TYPE":0,"CLASSIFICATION_TYPE":"U","NORAD_CAT_ID":56748,"ELEMENT_SET_NO":999,"REV_AT_EPOCH":15460,"BSTAR":0.00043416252,"MEAN_MOTION_DOT":0.00012341,"MEAN_MOTION_DDOT":0},{"OBJECT_NAME":"STARLINK-35678","OBJECT_ID":"2025-288N","EPOCH":"2026-03-09T06:31:43.899168","MEAN_MOTION":15.27579927,"ECCENTRICITY":0.00031155,"INCLINATION":43.0048,"RA_OF_ASC_NODE":25.7996,"ARG_OF_PERICENTER":243.2531,"MEAN_ANOMALY":116.8002,"EPHEMERIS_TYPE":0,"CLASSIFICATION_TYPE":"U","NORAD_CAT_ID":66971,"ELEMENT_SET_NO":999,"REV_AT_EPOCH":1522,"BSTAR":0.0010863423,"MEAN_MOTION_DOT":0.00029755,"MEAN_MOTION_DDOT":0}]
